{"type": "FeatureCollection", "features": [ {"type": "Feature", "properties": {"norad_id": 39122, "name": "EUTELSAT 117 WEST A", "group": "eutelsat", "lat": 0.030123515628240737, "lon": 80.29341533551795, "alt_km": 35798.645524814325, "timestamp": "2025-12-12T07:43:20.174991+00:00", "meta": {"OBJECT_NAME": "EUTELSAT 117 WEST A", "OBJECT_ID": "2013-012A", "EPOCH": "2025-12-11T23:13:43.760640", "MEAN_MOTION": 1.00271472, "ECCENTRICITY": 0.00029566, "INCLINATION": 0.0144, "RA_OF_ASC_NODE": 8.2993, "ARG_OF_PERICENTER": 255.3343, "MEAN_ANOMALY": 48.9131, "EPHEMERIS_TYPE": 0, "CLASSIFICATION_TYPE": "U", "NORAD_CAT_ID": 39122, "ELEMENT_SET_NO": 999, "REV_AT_EPOCH": 4655, "BSTAR": 0, "MEAN_MOTION_DOT": -4e-08, "MEAN_MOTION_DDOT": 0}, "tle": {"line1": "1 39122U 13012A   25345.96786760 -.00000004  00000+0  00000+0 0  9995", "line2": "2 39122   0.0144   8.2993 0002956 255.3343  48.9131  1.00271472 46556"}}, "geometry": {"type": "Point", "coordinates": [80.29341533551795, 0.030123515628240737]}}, {"type": "Feature", "properties": {"norad_id": 39163, "name": "EUTELSAT 7B", "group": "eutelsat", "lat": -0.01731619062855557, "lon": -155.95596298450076, "alt_km": 35793.30867142266, "timestamp": "2025-12-12T07:43:20.175004+00:00", "meta": {"OBJECT_NAME": "EUTELSAT 7B", "OBJECT_ID": "2013-022A", "EPOCH": "2025-12-11T22:06:18.182592", "MEAN_MOTION": 1.00272719, "ECCENTRICITY": 0.0004619, "INCLINATION": 0.0731, "RA_OF_ASC_NODE": 20.0166, "ARG_OF_PERICENTER": 296.9814, "MEAN_ANOMALY": 102.4454, "EPHEMERIS_TYPE": 0, "CLASSIFICATION_TYPE": "U", "NORAD_CAT_ID": 39163, "ELEMENT_SET_NO": 999, "REV_AT_EPOCH": 4607, "BSTAR": 0, "MEAN_MOTION_DOT": 5.7e-07, "MEAN_MOTION_DDOT": 0}, "tle": {"line1": "1 39163U 13022A   25345.92104378  .00000057  00000+0  00000+0 0  9993", "line2": "2 39163   0.0731  20.0166 0004619 296.9814 102.4454  1.00272719 46075"}}, "geometry": {"type": "Point", "coordinates": [-155.95596298450076, -0.01731619062855557]}}, {"type": "Feature", "properties": {"norad_id": 39612, "name": "EXPRESS-AT1", "group": "eutelsat", "lat": -0.027263368637610676, "lon": -106.907457181041, "alt_km": 35784.86300892411, "timestamp": "2025-12-12T07:43:20.175016+00:00", "meta": {"OBJECT_NAME": "EXPRESS-AT1", "OBJECT_ID": "2014-010A", "EPOCH": "2025-12-11T22:20:16.844064", "MEAN_MOTION": 1.00271479, "ECCENTRICITY": 3.871e-05, "INCLINATION": 0.0177, "RA_OF_ASC_NODE": 298.5169, "ARG_OF_PERICENTER": 275.6842, "MEAN_ANOMALY": 257.7452, "EPHEMERIS_TYPE": 0, "CLASSIFICATION_TYPE": "U", "NORAD_CAT_ID": 39612, "ELEMENT_SET_NO": 999, "REV_AT_EPOCH": 4294, "BSTAR": 0, "MEAN_MOTION_DOT": 8.7e-07, "MEAN_MOTION_DDOT": 0}, "tle": {"line1": "1 39612U 14010A   25345.93075051  .00000087  00000+0  00000+0 0  9999", "line2": "2 39612   0.0177 298.5169 0000387 275.6842 257.7452  1.00271479 42942"}}, "geometry": {"type": "Point", "coordinates": [-106.907457181041, -0.027263368637610676]}}, {"type": "Feature", "properties": {"norad_id": 39613, "name": "EXPRESS-AT2", "group": "eutelsat", "lat": 0.010102999166913734, "lon": -23.021620435302303, "alt_km": 35783.102919756835, "timestamp": "2025-12-12T07:43:20.175028+00:00", "meta": {"OBJECT_NAME": "EXPRESS-AT2", "OBJECT_ID": "2014-010B", "EPOCH": "2025-12-11T15:53:16.407744", "MEAN_MOTION": 1.00271778, "ECCENTRICITY": 0.00014239, "INCLINATION": 0.0193, "RA_OF_ASC_NODE": 312.5987, "ARG_OF_PERICENTER": 324.9998, "MEAN_ANOMALY": 181.2055, "EPHEMERIS_TYPE": 0, "CLASSIFICATION_TYPE": "U", "NORAD_CAT_ID": 39613, "ELEMENT_SET_NO": 999, "REV_AT_EPOCH": 4262, "BSTAR": 0, "MEAN_MOTION_DOT": -2.73e-06, "MEAN_MOTION_DDOT": 0}, "tle": {"line1": "1 39613U 14010B   25345.66199546 -.00000273  00000+0  00000+0 0  9994", "line2": "2 39613   0.0193 312.5987 0001423 324.9998 181.2055  1.00271778 42625"}}, "geometry": {"type": "Point", "coordinates": [-23.021620435302303, 0.010102999166913734]}}, {"type": "Feature", "properties": {"norad_id": 39773, "name": "EUTELSAT 3B", "group": "eutelsat", "lat": -0.0453468382881006, "lon": -159.8301031983406, "alt_km": 35769.68928229754, "timestamp": "2025-12-12T07:43:20.175039+00:00", "meta": {"OBJECT_NAME": "EUTELSAT 3B", "OBJECT_ID": "2014-030A", "EPOCH": "2025-12-11T22:05:10.789728", "MEAN_MOTION": 1.00270349, "ECCENTRICITY": 0.00046045, "INCLINATION": 0.0612, "RA_OF_ASC_NODE": 347.6355, "ARG_OF_PERICENTER": 242.7733, "MEAN_ANOMALY": 184.8606, "EPHEMERIS_TYPE": 0, "CLASSIFICATION_TYPE": "U", "NORAD_CAT_ID": 39773, "ELEMENT_SET_NO": 999, "REV_AT_EPOCH": 4218, "BSTAR": 0, "MEAN_MOTION_DOT": 2.8e-07, "MEAN_MOTION_DDOT": 0}, "tle": {"line1": "1 39773U 14030A   25345.92026377  .00000028  00000+0  00000+0 0  9990", "line2": "2 39773   0.0612 347.6355 0004604 242.7733 184.8606  1.00270349 42189"}}, "geometry": {"type": "Point", "coordinates": [-159.8301031983406, -0.0453468382881006]}}, {"type": "Feature", "properties": {"norad_id": 40425, "name": "EUTELSAT 115 WEST B", "group": "eutelsat", "lat": -0.01979964505765477, "lon": 82.19903094568357, "alt_km": 35785.64608959738, "timestamp": "2025-12-12T07:43:20.175051+00:00", "meta": {"OBJECT_NAME": "EUTELSAT 115 WEST B", "OBJECT_ID": "2015-010B", "EPOCH": "2025-12-11T23:14:13.712928", "MEAN_MOTION": 1.00272293, "ECCENTRICITY": 2.161e-05, "INCLINATION": 0.0398, "RA_OF_ASC_NODE": 160.8352, "ARG_OF_PERICENTER": 353.0477, "MEAN_ANOMALY": 160.6978, "EPHEMERIS_TYPE": 0, "CLASSIFICATION_TYPE": "U", "NORAD_CAT_ID": 40425, "ELEMENT_SET_NO": 999, "REV_AT_EPOCH": 3951, "BSTAR": 0, "MEAN_MOTION_DOT": -1.6e-07, "MEAN_MOTION_DDOT": 0}, "tle": {"line1": "1 40425U 15010B   25345.96821427 -.00000016  00000+0  00000+0 0  9996", "line2": "2 40425   0.0398 160.8352 0000216 353.0477 160.6978  1.00272293 39511"}}, "geometry": {"type": "Point", "coordinates": [82.19903094568357, -0.01979964505765477]}}, {"type": "Feature", "properties": {"norad_id": 40875, "name": "EUTELSAT 8 WEST B", "group": "eutelsat", "lat": -0.01186914853346925, "lon": -170.93264607599676, "alt_km": 35780.84270236992, "timestamp": "2025-12-12T07:43:20.175063+00:00", "meta": {"OBJECT_NAME": "EUTELSAT 8 WEST B", "OBJECT_ID": "2015-039B", "EPOCH": "2025-12-11T22:02:03.588576", "MEAN_MOTION": 1.0027162, "ECCENTRICITY": 0.00042017, "INCLINATION": 0.0653, "RA_OF_ASC_NODE": 6.34, "ARG_OF_PERICENTER": 255.4876, "MEAN_ANOMALY": 141.5745, "EPHEMERIS_TYPE": 0, "CLASSIFICATION_TYPE": "U", "NORAD_CAT_ID": 40875, "ELEMENT_SET_NO": 999, "REV_AT_EPOCH": 3777, "BSTAR": 0, "MEAN_MOTION_DOT": -5.7e-07, "MEAN_MOTION_DDOT": 0}, "tle": {"line1": "1 40875U 15039B   25345.91809709 -.00000057  00000+0  00000+0 0  9995", "line2": "2 40875   0.0653   6.3400 0004201 255.4876 141.5745  1.00271620 37777"}}, "geometry": {"type": "Point", "coordinates": [-170.93264607599676, -0.01186914853346925]}}, {"type": "Feature", "properties": {"norad_id": 41310, "name": "EUTELSAT 9B", "group": "eutelsat", "lat": 0.011149833911443889, "lon": -153.94403015858566, "alt_km": 35777.80521821606, "timestamp": "2025-12-12T07:43:20.175074+00:00", "meta": {"OBJECT_NAME": "EUTELSAT 9B", "OBJECT_ID": "2016-005A", "EPOCH": "2025-12-11T22:06:55.623168", "MEAN_MOTION": 1.00269719, "ECCENTRICITY": 0.0004684, "INCLINATION": 0.0432, "RA_OF_ASC_NODE": 62.511, "ARG_OF_PERICENTER": 207.2212, "MEAN_ANOMALY": 151.8834, "EPHEMERIS_TYPE": 0, "CLASSIFICATION_TYPE": "U", "NORAD_CAT_ID": 41310, "ELEMENT_SET_NO": 999, "REV_AT_EPOCH": 3623, "BSTAR": 0, "MEAN_MOTION_DOT": 7e-07, "MEAN_MOTION_DDOT": 0}, "tle": {"line1": "1 41310U 16005A   25345.92147712  .00000070  00000+0  00000+0 0  9998", "line2": "2 41310   0.0432  62.5110 0004684 207.2212 151.8834  1.00269719 36232"}}, "geometry": {"type": "Point", "coordinates": [-153.94403015858566, 0.011149833911443889]}}, {"type": "Feature", "properties": {"norad_id": 41382, "name": "EUTELSAT 65 WEST A", "group": "eutelsat", "lat": 0.053013567062590986, "lon": 131.87941263057454, "alt_km": 35793.7709307162, "timestamp": "2025-12-12T07:43:20.175086+00:00", "meta": {"OBJECT_NAME": "EUTELSAT 65 WEST A", "OBJECT_ID": "2016-014A", "EPOCH": "2025-12-11T23:28:27.350112", "MEAN_MOTION": 1.00272135, "ECCENTRICITY": 0.00025399, "INCLINATION": 0.0516, "RA_OF_ASC_NODE": 12.3148, "ARG_OF_PERICENTER": 255.844, "MEAN_ANOMALY": 99.687, "EPHEMERIS_TYPE": 0, "CLASSIFICATION_TYPE": "U", "NORAD_CAT_ID": 41382, "ELEMENT_SET_NO": 999, "REV_AT_EPOCH": 3565, "BSTAR": 0, "MEAN_MOTION_DOT": -2.68e-06, "MEAN_MOTION_DDOT": 0}, "tle": {"line1": "1 41382U 16014A   25345.97809433 -.00000268  00000+0  00000+0 0  9997", "line2": "2 41382   0.0516  12.3148 0002539 255.8440  99.6870  1.00272135 35657"}}, "geometry": {"type": "Point", "coordinates": [131.87941263057454, 0.053013567062590986]}}, {"type": "Feature", "properties": {"norad_id": 41589, "name": "EUTELSAT 117 WEST B", "group": "eutelsat", "lat": -0.009352283605701105, "lon": 80.13149489317512, "alt_km": 35782.85943807893, "timestamp": "2025-12-12T07:43:20.175110+00:00", "meta": {"OBJECT_NAME": "EUTELSAT 117 WEST B", "OBJECT_ID": "2016-038B", "EPOCH": "2025-12-11T23:13:36.273216", "MEAN_MOTION": 1.00275784, "ECCENTRICITY": 5.992e-05, "INCLINATION": 0.0087, "RA_OF_ASC_NODE": 154.6922, "ARG_OF_PERICENTER": 250.9411, "MEAN_ANOMALY": 266.7128, "EPHEMERIS_TYPE": 0, "CLASSIFICATION_TYPE": "U", "NORAD_CAT_ID": 41589, "ELEMENT_SET_NO": 999, "REV_AT_EPOCH": 3478, "BSTAR": 0, "MEAN_MOTION_DOT": -4e-08, "MEAN_MOTION_DDOT": 0}, "tle": {"line1": "1 41589U 16038B   25345.96778094 -.00000004  00000+0  00000+0 0  9997", "line2": "2 41589   0.0087 154.6922 0000599 250.9411 266.7128  1.00275784 34786"}}, "geometry": {"type": "Point", "coordinates": [80.13149489317512, -0.009352283605701105]}}]}